     2              NAVIGATION DATA                         RINEX VERSION / TYPE
CCRINEXN V1.5.9 UX  CDDIS               16-JUL-00 06:23     PGM / RUN BY / DATE 
IGS BROADCAST EPHEMERIS FILE                                COMMENT             
   -0.4657D-09 -0.4983D-07 -0.2161D-06 -0.1770D-06          ION ALPHA           
    0.3098D+05 -0.6451D+05  0.1034D+06  0.1638D+06          ION BETA            
    0.651925802231D-08 0.115463194561D-13   147456       47 DELTA-UTC: A0,A1,T,W
    13                                                      LEAP SECONDS        
                                                            END OF HEADER       
 7 00  7 16 20  0  0.0 0.176586210728D-03-0.105728759081D-10 0.000000000000D+00
    0.179000000000D+03 0.499062500000D+02 0.435661004172D-08 0.199613062096D+01
    0.255368649960D-05 0.113485113252D-01 0.115912407637D-04 0.515358222771D+04
    0.720000000000D+05-0.137835741043D-06-0.117969652470D+00-0.309199094772D-06
    0.950302568328D+00 0.147562500000D+03-0.208435163533D+01-0.776889503423D-08
   -0.315013121561D-09 0.000000000000D+00 0.107100000000D+04 0.000000000000D+00
    0.100000000000D+01 0.000000000000D+00-0.186264514923D-08 0.179000000000D+03
    0.651300000000D+05 0.000000000000D+00 0.000000000000D+00 0.000000000000D+00
 8 00  7 16 20  0  0.0 0.283495988697D-03 0.472937244922D-10 0.000000000000D+00
    0.175000000000D+03 0.165000000000D+02 0.472305387701D-08 0.394833496731D+00
    0.739470124245D-06 0.757479458116D-02 0.775977969170D-05 0.515368517876D+04
    0.720000000000D+05-0.502914190292D-07-0.216016596916D+01-0.894069671631D-07
    0.957764562350D+00 0.230718750000D+03 0.188550492257D+01-0.810033741157D-08
    0.427160650099D-09 0.100000000000D+01 0.107100000000D+04 0.000000000000D+00
    0.200000000000D+01 0.000000000000D+00-0.465661287308D-08 0.175000000000D+03
    0.648180000000D+05 0.000000000000D+00 0.000000000000D+00 0.000000000000D+00
 9 00  7 16 20  0  0.0-0.537107698619D-04-0.181898940355D-11 0.000000000000D+00
    0.103000000000D+03 0.175312500000D+02 0.513699969094D-08-0.118889432954D+00
    0.948086380959D-06 0.104605462402D-01 0.738352537155D-05 0.515366334724D+04
    0.720000000000D+05 0.577419996262D-07-0.220718197063D+01 0.106170773506D-06
    0.943794421763D+00 0.225718750000D+03 0.604721569058D+00-0.835320508738D-08
    0.399659504565D-09 0.100000000000D+01 0.107100000000D+04 0.000000000000D+00
    0.400000000000D+01 0.000000000000D+00-0.512227416039D-08 0.359000000000D+03
    0.711480000000D+05 0.000000000000D+00 0.000000000000D+00 0.000000000000D+00
10 00  7 16 20  0  0.0 0.537158921361D-04 0.568434188608D-12 0.000000000000D+00
    0.690000000000D+02-0.703750000000D+02 0.447625788268D-08-0.297771701069D+01
   -0.359490513802D-05 0.407564267516D-02 0.146403908730D-05 0.515365536690D+04
    0.720000000000D+05-0.745058059692D-07 0.199964509146D+01 0.465661287308D-07
    0.975128552921D+00 0.361000000000D+03-0.196651650988D-01-0.820355599675D-08
   -0.165006873199D-09 0.100000000000D+01 0.107100000000D+04 0.000000000000D+00
    0.400000000000D+01 0.000000000000D+00-0.186264514923D-08 0.581000000000D+03
    0.648180000000D+05 0.000000000000D+00 0.000000000000D+00 0.000000000000D+00
11 00  7 16 20  0  0.0 0.478658359498D-03 0.228510543820D-10 0.000000000000D+00
    0.210000000000D+02 0.122875000000D+03 0.532093592405D-08-0.281645095324D+01
    0.634416937828D-05 0.246162957046D-02 0.398978590965D-05 0.515364658737D+04
    0.720000000000D+05 0.223517417908D-07 0.919594008736D+00-0.298023223877D-07
    0.924507480967D+00 0.285593750000D+03-0.298377738582D+01-0.855071331439D-08
    0.303941231801D-09 0.000000000000D+00 0.107100000000D+04 0.000000000000D+00
    0.100000000000D+01 0.000000000000D+00-0.838190317154D-08 0.277000000000D+03
    0.653400000000D+05 0.000000000000D+00 0.000000000000D+00 0.000000000000D+00
13 00  7 16 20  0  0.0-0.807762611657D-03-0.864019966684D-11 0.000000000000D+00
    0.160000000000D+02-0.104312500000D+03 0.409659921123D-08-0.293914771242D+01
   -0.535883009434D-05 0.272296299227D-02 0.104568898678D-04 0.515376441765D+04
    0.720000000000D+05-0.484287738800D-07 0.304661093155D+01 0.372529029846D-07
    0.965713573504D+00 0.178531250000D+03-0.403736839568D+00-0.768031991615D-08
    0.746459664470D-10 0.100000000000D+01 0.107100000000D+04 0.000000000000D+00
    0.200000000000D+01 0.000000000000D+00-0.116415321827D-07 0.272000000000D+03
    0.648180000000D+05 0.000000000000D+00 0.000000000000D+00 0.000000000000D+00
15 00  7 16 20  0  0.0 0.836975872517D-03 0.432009983342D-11 0.000000000000D+00
    0.510000000000D+02 0.100218750000D+03 0.414910139816D-08-0.170674502009D+00
    0.501982867718D-05 0.779131916352D-02 0.395439565182D-05 0.515320963097D+04
    0.720000000000D+05-0.104308128357D-06 0.101857394294D+01 0.670552253723D-07
    0.982263442849D+00 0.318750000000D+03 0.153621386065D+01-0.812605276843D-08
    0.320013329840D-09 0.100000000000D+01 0.107100000000D+04 0.000000000000D+00
    0.400000000000D+01 0.000000000000D+00-0.279396772385D-08 0.307000000000D+03
    0.659280000000D+05 0.000000000000D+00 0.000000000000D+00 0.000000000000D+00
16 00  7 16 20  0  0.0-0.104750506580D-04 0.193267624127D-11 0.000000000000D+00
    0.280000000000D+02-0.876250000000D+02 0.439232581514D-08-0.179971251606D+01
   -0.455603003502D-05 0.510609673802D-02 0.201724469662D-05 0.515360127258D+04
    0.720000000000D+05 0.447034835815D-07 0.205182746859D+01-0.391155481339D-07
    0.977490163520D+00 0.349281250000D+03 0.455814037273D+00-0.821355641331D-08
   -0.127862468842D-09 0.000000000000D+00 0.107100000000D+04 0.000000000000D+00
    0.100000000000D+01 0.000000000000D+00-0.931322574615D-09 0.284000000000D+03
    0.653700000000D+05 0.000000000000D+00 0.000000000000D+00 0.000000000000D+00
17 00  7 16 20  0  0.0-0.264529604465D-03-0.181898940355D-11 0.000000000000D+00
    0.220000000000D+02 0.922812500000D+02 0.410838541646D-08-0.248911333093D+00
    0.480562448502D-05 0.120562136872D-01 0.361166894436D-05 0.515370136452D+04
    0.720000000000D+05 0.165775418282D-06 0.105783194354D+01-0.502914190292D-07
    0.983882844887D+00 0.320437500000D+03 0.297271101620D+01-0.814319633967D-08
    0.317870383435D-09 0.100000000000D+01 0.107100000000D+04 0.000000000000D+00
    0.280000000000D+01 0.000000000000D+00-0.232830643654D-08 0.220000000000D+02
    0.648180000000D+05 0.000000000000D+00 0.000000000000D+00 0.000000000000D+00
20 00  7 16 20  0  0.0-0.846055336297D-04 0.795807864051D-11 0.000000000000D+00
    0.800000000000D+01-0.777812500000D+02 0.485377360772D-08-0.303161171441D+01
   -0.396557152271D-05 0.244932482019D-02 0.138394534588D-05 0.515375970459D+04
    0.720000000000D+05-0.335276126862D-07 0.200233266362D+01 0.633299350739D-07
    0.958376531704D+00 0.353000000000D+03 0.221862974494D+01-0.843677999718D-08
   -0.142505935944D-09 0.000000000000D+00 0.107100000000D+04 0.000000000000D+00
    0.100000000000D+01 0.000000000000D+00-0.651925802231D-08 0.776000000000D+03
    0.656700000000D+05 0.000000000000D+00 0.000000000000D+00 0.000000000000D+00
21 00  7 16 20  0  0.0 0.128070823848D-04 0.795807864051D-12 0.000000000000D+00
    0.225000000000D+03-0.755937500000D+02 0.437411077070D-08-0.279241608695D+01
   -0.394880771637D-05 0.162869696505D-01 0.190548598766D-05 0.515368341637D+04
    0.720000000000D+05-0.242143869400D-07 0.200564580148D+01-0.339001417160D-06
    0.974660675147D+00 0.352156250000D+03-0.253938036354D+01-0.800640492747D-08
   -0.114290474943D-09 0.100000000000D+01 0.107100000000D+04 0.000000000000D+00
    0.280000000000D+01 0.000000000000D+00-0.279396772385D-08 0.481000000000D+03
    0.648180000000D+05 0.000000000000D+00 0.000000000000D+00 0.000000000000D+00
22 00  7 16 20  0  0.0 0.108080450445D-03 0.372892827727D-10 0.000000000000D+00
    0.180000000000D+02-0.199375000000D+02 0.536308053669D-08 0.290888418714D+01
   -0.115297734737D-05 0.131025777664D-01 0.523962080479D-05 0.515357866097D+04
    0.720000000000D+05-0.800937414169D-07-0.119687608518D+01-0.135973095894D-06
    0.933151637146D+00 0.265062500000D+03 0.574857619367D+00-0.821677083292D-08
   -0.316441752498D-09 0.100000000000D+01 0.107100000000D+04 0.000000000000D+00
    0.400000000000D+01 0.000000000000D+00-0.419095158577D-08 0.274000000000D+03
    0.648180000000D+05 0.000000000000D+00 0.000000000000D+00 0.000000000000D+00
24 00  7 16 20  0  0.0 0.763182528317D-03 0.557065504836D-11 0.000000000000D+00
    0.520000000000D+02 0.113937500000D+03 0.405409744086D-08-0.177745576525D+00
    0.580772757530D-05 0.895996252075D-02 0.457838177681D-05 0.515360164452D+04
    0.720000000000D+05-0.119209289551D-06 0.987987718408D+00 0.316649675369D-07
    0.986248022080D+00 0.307187500000D+03-0.170081407078D+01-0.813319592311D-08
    0.363586573412D-09 0.000000000000D+00 0.107100000000D+04 0.000000000000D+00
    0.000000000000D+00 0.000000000000D+00-0.931322574615D-09 0.520000000000D+02
    0.656100000000D+05 0.000000000000D+00 0.000000000000D+00 0.000000000000D+00
25 00  7 16 20  0  0.0 0.687455758452D-05 0.227373675443D-12 0.000000000000D+00
    0.183000000000D+03 0.239062500000D+02 0.521128849966D-08 0.699779977262D+00
    0.127032399178D-05 0.834406039212D-02 0.793673098087D-05 0.515377478790D+04
    0.720000000000D+05-0.143423676491D-06-0.224686089372D+01 0.540167093277D-07
    0.936607706499D+00 0.216468750000D+03-0.211042980465D+01-0.836141971526D-08
    0.378230040514D-09 0.000000000000D+00 0.107100000000D+04 0.000000000000D+00
    0.100000000000D+01 0.000000000000D+00-0.745058059692D-08 0.439000000000D+03
    0.650400000000D+05 0.000000000000D+00 0.000000000000D+00 0.000000000000D+00
